{"Av. Juan Palomar y Arias 370, Royal Country, 45116 Zapopan, Jal.":{"zone":"ABADIA RESIDENCIAL","internal":{"colony":"Abadía","id":"183378","zipcode":"45136","state":"Jalisco","state_id":"14","city":"Zapopan","city_id":"534"}},"Av. Juan Palomar y Arias 1249, Vallarta Universidad, 45110 Zapopan, Jal.":{"zone":"ALCAZAR PONIENTE","internal":{"colony":"El Alcazar Poniente","id":"183322","zipcode":"45110","state":"Jalisco","state_id":"14","city":"Zapopan","city_id":"534"}},"Colegio del Aire, Avenida Rio, San Francisco 160, 45200 Zapopan, Jal.":{"zone":"ARAUCA","internal":{"colony":"Arauca","id":"183303","zipcode":"45019","state":"Jalisco","state_id":"14","city":"Zapopan","city_id":"534"}},"Atlas Colomos, Zapopan, Jal.":{"zone":"ATLAS COLOMOS","internal":{"colony":"Atlas Colomos","id":"56619","zipcode":"45118","state":"Jalisco","state_id":"14","city":"Zapopan","city_id":"534"}},"Ayamonte, Bajío II, 45014 Zapopan, Jal.":{"zone":"AYAMONTE","internal":{"colony":"Ayamonte","id":"56453","zipcode":"45012","state":"Jalisco","state_id":"14","city":"Zapopan","city_id":"534"}},"Av. Juan Palomar y Arias 1299, 45110 Zapopan, Jal.":{"zone":"BOSQUE DE LAS LOMAS","internal":{"colony":"Jardines Universidad","id":"56600","zipcode":"45110","state":"Jalisco","state_id":"14","city":"Zapopan","city_id":"534"}},"Av. Inglaterra, Bosques Vallarta, 45019 Zapopan, Jal.":{"zone":"BOSQUES VALLARTA","internal":{"colony":"Bosques Vallarta","id":"139176","zipcode":"45222","state":"Jalisco","state_id":"14","city":"Zapopan","city_id":"534"}},"Bugambilias, 45238 Zapopan, Jal.":{"zone":"BUGAMBILIAS","internal":{"colony":"Bugambilias","id":"56982","zipcode":"45238","state":"Jalisco","state_id":"14","city":"Zapopan","city_id":"534"}},"Campo Lago, 45222 Rancho Contento, Jal.":{"zone":"CAMPO LAGO","internal":{"colony":"Campo Lago","id":"56950","zipcode":"45222","state":"Jalisco","state_id":"14","city":"Zapopan","city_id":"534"}},"Ciudad del Sol, 45050, Zapopan, Jal.":{"zone":"CIUDAD DEL SOL","internal":{"colony":"Ciudad Del Sol","id":"56521","zipcode":"45050","state":"Jalisco","state_id":"14","city":"Zapopan","city_id":"534"}},"Granja, 45010 Zapopan, Jal.":{"zone":"CIUDAD GRANJA","internal":{"colony":"Ciudad Granja","id":"56444","zipcode":"45010","state":"Jalisco","state_id":"14","city":"Zapopan","city_id":"534"}},"Colinas de San Javier, Guadalajara, Jal.":{"zone":"COLINAS DE SAN JAVIER","internal":{"colony":"Colinas de San Javier","id":"56607","zipcode":"45110","state":"Jalisco","state_id":"14","city":"Zapopan","city_id":"534"}},"Pinar de la Venta, 45221 Alianza de Cazadores Diana, Jal.":{"zone":"DIANA NATURA","internal":{"colony":"Diana Nature Residencial","id":"56946","zipcode":"45221","state":"Jalisco","state_id":"14","city":"Zapopan","city_id":"534"}},"El Coto, 45116 Zapopan, Jal.":{"zone":"EL COTO","internal":{"colony":"Puerta de Hierro","id":"56610","zipcode":"45116","state":"Jalisco","state_id":"14","city":"Zapopan","city_id":"534"}},"Jardín Real, Zapopan, Jal.":{"zone":"JARDIN REAL","internal":{"colony":"Jardín Real","id":"56708","zipcode":"45136","state":"Jalisco","state_id":"14","city":"Zapopan","city_id":"534"}},"Jardines Universidad, 45110 Zapopan, Jal.":{"zone":"JARDINES UNIVERSIDAD","internal":{"colony":"Jardines Universidad","id":"56600","zipcode":"45110","state":"Jalisco","state_id":"14","city":"Zapopan","city_id":"534"}},"Jardines Vallarta, 45027 Zapopan, Jal.":{"zone":"JARDINES VALLARTA","internal":{"colony":"Vallarta","id":"183301","zipcode":"45012","state":"Jalisco","state_id":"14","city":"Zapopan","city_id":"534"}},"Av Rafael Sanzio 198-228, La Estancia, 45030 Zapopan, Jal.":{"zone":"LA ESTANCIA","internal":{"colony":"La Estancia","id":"56483","zipcode":"45030","state":"Jalisco","state_id":"14","city":"Zapopan","city_id":"534"}},"Av. Paseo La Toscana, 45136 Zapopan, Jal.":{"zone":"LA TOSCANA","internal":{"colony":"La Toscana","id":"183371","zipcode":"45136","state":"Jalisco","state_id":"14","city":"Zapopan","city_id":"534"}},"Las Cañadas, Jal.":{"zone":"LAS CAÑADAS","internal":{"colony":"Las Cañadas","id":"56938","zipcode":"45206","state":"Jalisco","state_id":"14","city":"Zapopan","city_id":"534"}},"Cvln. Sur 48, Las Fuentes, 45070 Zapopan, Jal.":{"zone":"LAS FUENTES","internal":{"colony":"Las Fuentes","id":"56568","zipcode":"45070","state":"Jalisco","state_id":"14","city":"Zapopan","city_id":"534"}},"Bjd. Vista Hermosa 1172-1179, Lomas del Valle, 45129 Zapopan, Jal.":{"zone":"LOMAS DEL VALLE","internal":{"colony":"Lomas Del Valle","id":"56636","zipcode":"45129","state":"Jalisco","state_id":"14","city":"Zapopan","city_id":"534"}},"Av. Acueducto 6060, Lomas del Bosque, Chedraui, 45118 Zapopan, Jal.":{"zone":"LOS FRAILES","internal":{"colony":"Residencial los Frailes","id":"56755","zipcode":"45140","state":"Jalisco","state_id":"14","city":"Zapopan","city_id":"534"}},"Residencial Los Sueños, 45019 Zapopan, Jal.":{"zone":"LOS SUEÑOS","internal":{"colony":"Los Sueños","id":"183440","zipcode":"45222","state":"Jalisco","state_id":"14","city":"Zapopan","city_id":"534"}},"P.º del Pinar, 45221 Pinar de la Venta, Jal.":{"zone":"PINAR DE LA VENTA","internal":{"colony":"Pinar de La Venta","id":"56948","zipcode":"45221","state":"Jalisco","state_id":"14","city":"Zapopan","city_id":"534"}},"Blvd. Prta de Hierro, Puerta de Hierro, 45116 Zapopan, Jal.":{"zone":"PUERTA DE HIERRO","internal":{"colony":"Puerta de Hierro","id":"56610","zipcode":"45116","state":"Jalisco","state_id":"14","city":"Zapopan","city_id":"534"}},"Puerta del Bosque, 45116 Zapopan, Jal.":{"zone":"PUERTA DEL BOSQUE","internal":{"colony":"Del Bosque","id":"56979","zipcode":"45237","state":"Jalisco","state_id":"14","city":"Zapopan","city_id":"534"}},"Av. Universidad 2662, Fracc. Puerta Las Lomas, 45110 Zapopan, Jal.":{"zone":"PUERTA LAS LOMAS","internal":{"colony":"Fraccionamiento Puerta las Lomas","id":"139070","zipcode":"45115","state":"Jalisco","state_id":"14","city":"Zapopan","city_id":"534"}},"Av. de las Rosas, Rancho Contento, 45222 Rancho Contento, Jal.":{"zone":"RANCHO CONTENTO","internal":{"colony":"Rancho Contento","id":"56952","zipcode":"45222","state":"Jalisco","state_id":"14","city":"Zapopan","city_id":"534"}},"P.º Valle Real 3000, Valle Real, 45019 Zapopan, Jal.":{"zone":"RESERVA REAL","internal":{"colony":"Valle Real","id":"56474","zipcode":"45019","state":"Jalisco","state_id":"14","city":"Zapopan","city_id":"534"}},"Av. Paseo Royal Country 5464-5514, Royal Country, 45116 Zapopan, Jal.":{"zone":"ROYAL COUNTRY","internal":{"colony":"Royal Country","id":"56611","zipcode":"45116","state":"Jalisco","state_id":"14","city":"Zapopan","city_id":"534"}},"Solares Residencial, 45019 Zapopan, Jal.":{"zone":"SOLARES","internal":{"colony":"Solares","id":"56472","zipcode":"45019","state":"Jalisco","state_id":"14","city":"Zapopan","city_id":"534"}},"Av. Valle de los Imperios, 45134 Tesistán, Jal.":{"zone":"VALLE IMPERIAL","internal":{"colony":"Valle Imperial","id":"56687","zipcode":"45134","state":"Jalisco","state_id":"14","city":"Zapopan","city_id":"534"}},"P.º San Arturo Ote. 114, Valle Real, 45019 Zapopan, Jal.":{"zone":"VALLE REAL","internal":{"colony":"Valle Real","id":"56474","zipcode":"45019","state":"Jalisco","state_id":"14","city":"Zapopan","city_id":"534"}},"P.º García Lorca 100, Magna, 45169 Zapopan, Jal.":{"zone":"VILLA MAGNA","internal":{"colony":"Villa Magna","id":"56797","zipcode":"45169","state":"Jalisco","state_id":"14","city":"Zapopan","city_id":"534"}},"Virreyes, Zapopan, Jal.":{"zone":"VIRREYES","internal":{"colony":"Fraccionamiento Residencial Parque Virreyes","id":"139063","zipcode":"45115","state":"Jalisco","state_id":"14","city":"Zapopan","city_id":"534"}},"Av. Acueducto 5300, Lomas del Bosque, Atlas Colomos, 45118 Zapopan, Jal.":{"zone":"ZOTOGRANDE","internal":{"colony":"Zotogrande","id":"56621","zipcode":"45118","state":"Jalisco","state_id":"14","city":"Zapopan","city_id":"534"}}}
